[
    {
        "Altitude(m)": 612502.208738333,
        "Argument of Periapsis(deg)": 0.0,
        "Eccentricity": 0.0,
        "Inclination(deg)": 60.0,
        "Latitude(deg)": -28.136018864542066,
        "Longitude(deg)": 167.14819445295532,
        "Mean Anomaly(deg)": -32.72730000000006,
        "RAAN(deg)": 285.0,
        "Satellite Name": "Test1 1274",
        "Satellite Number": 1274,
        "Semi-Major Axis(m)": 6980739.136638005,
        "Time(s)": 0
    },
    {
        "Altitude(m)": 612308.6566502762,
        "Argument of Periapsis(deg)": 0.00010418945913296404,
        "Eccentricity": 0.0,
        "Inclination(deg)": 60.0,
        "Latitude(deg)": -27.623074812620846,
        "Longitude(deg)": 167.5016699264343,
        "Mean Anomaly(deg)": -32.10719385453821,
        "RAAN(deg)": 284.9995799508602,
        "Satellite Name": "Test1 1274",
        "Satellite Number": 1274,
        "Semi-Major Axis(m)": 6980739.136638005,
        "Time(s)": 10
    },
    {
        "Altitude(m)": 612116.0734557017,
        "Argument of Periapsis(deg)": 0.0002083789182659281,
        "Eccentricity": 0.0,
        "Inclination(deg)": 60.0,
        "Latitude(deg)": -27.108961890951147,
        "Longitude(deg)": 167.85149422846806,
        "Mean Anomaly(deg)": -31.487087709076356,
        "RAAN(deg)": 284.9991599017205,
        "Satellite Name": "Test1 1274",
        "Satellite Number": 1274,
        "Semi-Major Axis(m)": 6980739.136638005,
        "Time(s)": 20
    },
    {
        "Altitude(m)": 611924.5287412271,
        "Argument of Periapsis(deg)": 0.00031256837739889213,
        "Eccentricity": 0.0,
        "Inclination(deg)": 60.0,
        "Latitude(deg)": -26.593714415165334,
        "Longitude(deg)": 168.1977717756501,
        "Mean Anomaly(deg)": -30.866981563614555,
        "RAAN(deg)": 284.9987398525808,
        "Satellite Name": "Test1 1274",
        "Satellite Number": 1274,
        "Semi-Major Axis(m)": 6980739.136638005,
        "Time(s)": 30
    },
    {
        "Altitude(m)": 611734.0914868495,
        "Argument of Periapsis(deg)": 0.0004167578365318562,
        "Eccentricity": 0.0,
        "Inclination(deg)": 60.0,
        "Latitude(deg)": -26.077365851548084,
        "Longitude(deg)": 168.54060526698447,
        "Mean Anomaly(deg)": -30.2468754181527,
        "RAAN(deg)": 284.998319803441,
        "Satellite Name": "Test1 1274",
        "Satellite Number": 1274,
        "Semi-Major Axis(m)": 6980739.136638005,
        "Time(s)": 40
    },
    {
        "Altitude(m)": 611544.8300354538,
        "Argument of Periapsis(deg)": 0.0005209472956648203,
        "Eccentricity": 0.0,
        "Inclination(deg)": 60.0,
        "Latitude(deg)": -25.559948849436882,
        "Longitude(deg)": 168.88009473914525,
        "Mean Anomaly(deg)": -29.62676927269085,
        "RAAN(deg)": 284.9978997543013,
        "Satellite Name": "Test1 1274",
        "Satellite Number": 1274,
        "Semi-Major Axis(m)": 6980739.136638005,
        "Time(s)": 50
    },
    {
        "Altitude(m)": 611356.8120625794,
        "Argument of Periapsis(deg)": 0.0006251367547977843,
        "Eccentricity": 0.0,
        "Inclination(deg)": 60.0,
        "Latitude(deg)": -25.041495272521317,
        "Longitude(deg)": 169.21633813385438,
        "Mean Anomaly(deg)": -29.006663127228993,
        "RAAN(deg)": 284.99747970516154,
        "Satellite Name": "Test1 1274",
        "Satellite Number": 1274,
        "Semi-Major Axis(m)": 6980739.136638005,
        "Time(s)": 60
    },
    {
        "Altitude(m)": 611170.1045464952,
        "Argument of Periapsis(deg)": 0.0007293262139307483,
        "Eccentricity": 0.0,
        "Inclination(deg)": 60.0,
        "Latitude(deg)": -24.52203622907629,
        "Longitude(deg)": 169.54943186444785,
        "Mean Anomaly(deg)": -28.386556981767193,
        "RAAN(deg)": 284.9970596560218,
        "Satellite Name": "Test1 1274",
        "Satellite Number": 1274,
        "Semi-Major Axis(m)": 6980739.136638005,
        "Time(s)": 70
    },
    {
        "Altitude(m)": 610984.773738579,
        "Argument of Periapsis(deg)": 0.0008335156730637124,
        "Eccentricity": 0.0,
        "Inclination(deg)": 60.0,
        "Latitude(deg)": -24.00160210116397,
        "Longitude(deg)": 169.87946986870418,
        "Mean Anomaly(deg)": -27.76645083630534,
        "RAAN(deg)": 284.99663960688207,
        "Satellite Name": "Test1 1274",
        "Satellite Number": 1274,
        "Semi-Major Axis(m)": 6980739.136638005,
        "Time(s)": 80
    },
    {
        "Altitude(m)": 610800.8851340353,
        "Argument of Periapsis(deg)": 0.0009377051321966765,
        "Eccentricity": 0.0,
        "Inclination(deg)": 60.0,
        "Latitude(deg)": -23.480222572846895,
        "Longitude(deg)": 170.206544173641,
        "Mean Anomaly(deg)": -27.146344690843485,
        "RAAN(deg)": 284.9962195577423,
        "Satellite Name": "Test1 1274",
        "Satellite Number": 1274,
        "Semi-Major Axis(m)": 6980739.136638005,
        "Time(s)": 90
    },
    {
        "Altitude(m)": 610618.5034429653,
        "Argument of Periapsis(deg)": 0.0010418945913296407,
        "Eccentricity": 0.0,
        "Inclination(deg)": 60.0,
        "Latitude(deg)": -22.957926657444926,
        "Longitude(deg)": 170.53074545937366,
        "Mean Anomaly(deg)": -26.526238545381634,
        "RAAN(deg)": 284.99579950860254,
        "Satellite Name": "Test1 1274",
        "Satellite Number": 1274,
        "Semi-Major Axis(m)": 6980739.136638005,
        "Time(s)": 100
    },
    {
        "Altitude(m)": 610437.6925617838,
        "Argument of Periapsis(deg)": 0.0011460840504626045,
        "Eccentricity": 0.0,
        "Inclination(deg)": 60.0,
        "Latitude(deg)": -22.434742723869327,
        "Longitude(deg)": 170.85216210913552,
        "Mean Anomaly(deg)": -25.90613239991983,
        "RAAN(deg)": 284.99537945946287,
        "Satellite Name": "Test1 1274",
        "Satellite Number": 1274,
        "Semi-Major Axis(m)": 6980739.136638005,
        "Time(s)": 110
    },
    {
        "Altitude(m)": 610258.5155450165,
        "Argument of Periapsis(deg)": 0.0012502735095955685,
        "Eccentricity": 0.0,
        "Inclination(deg)": 60.0,
        "Latitude(deg)": -21.91069852207312,
        "Longitude(deg)": 171.17088077118834,
        "Mean Anomaly(deg)": -25.28602625445798,
        "RAAN(deg)": 284.9949594103231,
        "Satellite Name": "Test1 1274",
        "Satellite Number": 1274,
        "Semi-Major Axis(m)": 6980739.136638005,
        "Time(s)": 120
    },
    {
        "Altitude(m)": 610081.0345774847,
        "Argument of Periapsis(deg)": 0.0013544629687285324,
        "Eccentricity": 0.0,
        "Inclination(deg)": 60.0,
        "Latitude(deg)": -21.385821207649574,
        "Longitude(deg)": 171.48698691973516,
        "Mean Anomaly(deg)": -24.66592010899623,
        "RAAN(deg)": 284.99453936118334,
        "Satellite Name": "Test1 1274",
        "Satellite Number": 1274,
        "Semi-Major Axis(m)": 6980739.136638005,
        "Time(s)": 130
    },
    {
        "Altitude(m)": 609905.3109469056,
        "Argument of Periapsis(deg)": 0.0014586524278614966,
        "Eccentricity": 0.0,
        "Inclination(deg)": 60.0,
        "Latitude(deg)": -20.860137365607624,
        "Longitude(deg)": 171.8005639019557,
        "Mean Anomaly(deg)": -24.045813963534375,
        "RAAN(deg)": 284.99411931204355,
        "Satellite Name": "Test1 1274",
        "Satellite Number": 1274,
        "Semi-Major Axis(m)": 6980739.136638005,
        "Time(s)": 140
    },
    {
        "Altitude(m)": 609731.4050168879,
        "Argument of Periapsis(deg)": 0.0015628418869944607,
        "Eccentricity": 0.0,
        "Inclination(deg)": 60.0,
        "Latitude(deg)": -20.333673033363528,
        "Longitude(deg)": 172.1116934969049,
        "Mean Anomaly(deg)": -23.425707818072574,
        "RAAN(deg)": 284.9936992629039,
        "Satellite Name": "Test1 1274",
        "Satellite Number": 1274,
        "Semi-Major Axis(m)": 6980739.136638005,
        "Time(s)": 150
    },
    {
        "Altitude(m)": 609559.3762003636,
        "Argument of Periapsis(deg)": 0.0016670313461274247,
        "Eccentricity": 0.0,
        "Inclination(deg)": 60.0,
        "Latitude(deg)": -19.80645372297497,
        "Longitude(deg)": 172.42045647340532,
        "Mean Anomaly(deg)": -22.80560167261072,
        "RAAN(deg)": 284.99327921376414,
        "Satellite Name": "Test1 1274",
        "Satellite Number": 1274,
        "Semi-Major Axis(m)": 6980739.136638005,
        "Time(s)": 160
    },
    {
        "Altitude(m)": 609389.2829335083,
        "Argument of Periapsis(deg)": 0.0017712208052603888,
        "Eccentricity": 0.0,
        "Inclination(deg)": 60.0,
        "Latitude(deg)": -19.2785044426471,
        "Longitude(deg)": 172.72693163406268,
        "Mean Anomaly(deg)": -22.185495527148966,
        "RAAN(deg)": 284.99285916462435,
        "Satellite Name": "Test1 1274",
        "Satellite Number": 1274,
        "Semi-Major Axis(m)": 6980739.136638005,
        "Time(s)": 170
    },
    {
        "Altitude(m)": 609221.1826500361,
        "Argument of Periapsis(deg)": 0.001875410264393353,
        "Eccentricity": 0.0,
        "Inclination(deg)": 60.0,
        "Latitude(deg)": -18.749849717544027,
        "Longitude(deg)": 173.0311963711606,
        "Mean Anomaly(deg)": -21.565389381687112,
        "RAAN(deg)": 284.9924391154846,
        "Satellite Name": "Test1 1274",
        "Satellite Number": 1274,
        "Semi-Major Axis(m)": 6980739.136638005,
        "Time(s)": 180
    },
    {
        "Altitude(m)": 609055.131756049,
        "Argument of Periapsis(deg)": 0.0019795997235263173,
        "Eccentricity": 0.0,
        "Inclination(deg)": 60.0,
        "Latitude(deg)": -18.220513609933036,
        "Longitude(deg)": 173.33332722157067,
        "Mean Anomaly(deg)": -20.94528323622531,
        "RAAN(deg)": 284.99201906634494,
        "Satellite Name": "Test1 1274",
        "Satellite Number": 1274,
        "Semi-Major Axis(m)": 6980739.136638005,
        "Time(s)": 190
    }
]